[{"OBJECT_NAME":"STARLINK-31512","OBJECT_ID":"2024-071S","EPOCH":"2026-03-09T23:12:34.001280","MEAN_MOTION":15.27591415,"ECCENTRICITY":0.0001473,"INCLINATION":43.0022,"RA_OF_ASC_NODE":298.0292,"ARG_OF_PERICENTER":263.0766,"MEAN_ANOMALY":96.9918,"EPHEMERIS_TYPE":0,"CLASSIFICATION_TYPE":"U","NORAD_CAT_ID":59500,"ELEMENT_SET_NO":999,"REV_AT_EPOCH":10870,"BSTAR":-0.00010707348,"MEAN_MOTION_DOT":-3.208e-5,"MEAN_MOTION_DDOT":0},{"OBJECT_NAME":"OBJECT B","OBJECT_ID":"2025-313B","EPOCH":"2026-03-09T22:01:30.454176","MEAN_MOTION":14.73613198,"ECCENTRICITY":0.02934893,"INCLINATION":97.5206,"RA_OF_ASC_NODE":141.38,"ARG_OF_PERICENTER":298.1139,"MEAN_ANOMALY":59.0692,"EPHEMERIS_TYPE":0,"CLASSIFICATION_TYPE":"U","NORAD_CAT_ID":67249,"ELEMENT_SET_NO":999,"REV_AT_EPOCH":1051,"BSTAR":0.00024043091,"MEAN_MOTION_DOT":3.075e-5,"MEAN_MOTION_DDOT":0}]
